{
  "type": "FeatureCollection",
  "features": [
    {
      "type": "Feature",
      "properties": {
        "name": "Dział",
        "country": "Polska",
        "country_code": "pl",
        "state": "województwo podkarpackie",
        "county": "powiat strzyżowski",
        "city": "gmina Wiśniowa",
        "postcode": "38-102",
        "iso3166_2": "PL-18",
        "lon": 21.7003817,
        "lat": 49.9148346,
        "state_code": "PK",
        "formatted": "Dział, 38-102 gmina Wiśniowa, Polska",
        "address_line1": "Dział",
        "address_line2": "38-102 gmina Wiśniowa, Polska",
        "categories": [
          "natural",
          "natural.mountain",
          "natural.mountain.peak"
        ],
        "details": [],
        "datasource": {
          "sourcename": "openstreetmap",
          "attribution": "© OpenStreetMap contributors",
          "license": "Open Database License",
          "url": "https://www.openstreetmap.org/copyright",
          "raw": {
            "lat": 49.9148346,
            "lon": 21.7003817,
            "name": "Dział",
            "osm_id": 5245675552,
            "natural": "peak",
            "osm_type": "n"
          }
        },
        "distance": 25670,
        "place_id": "51863710374cb3354059e71fd84c19f54840f00103f90120a8aa3801000000920306447a6961c582"
      },
      "geometry": {
        "type": "Point",
        "coordinates": [
          21.7003817,
          49.9148346
        ]
      }
    },
    {
      "type": "Feature",
      "properties": {
        "name": "Podlesie",
        "country": "Polska",
        "country_code": "pl",
        "state": "województwo podkarpackie",
        "county": "powiat strzyżowski",
        "city": "Grodzisko",
        "municipality": "gmina Strzyżów",
        "postcode": "38-102",
        "iso3166_2": "PL-18",
        "lon": 21.7166042,
        "lat": 49.8990749,
        "state_code": "PK",
        "formatted": "Podlesie, 38-102 Grodzisko, Polska",
        "address_line1": "Podlesie",
        "address_line2": "38-102 Grodzisko, Polska",
        "categories": [
          "natural",
          "natural.mountain",
          "natural.mountain.peak"
        ],
        "details": [],
        "datasource": {
          "sourcename": "openstreetmap",
          "attribution": "© OpenStreetMap contributors",
          "license": "Open Database License",
          "url": "https://www.openstreetmap.org/copyright",
          "raw": {
            "lat": 49.8990749,
            "lon": 21.7166042,
            "name": "Podlesie",
            "osm_id": 5245675553,
            "natural": "peak",
            "osm_type": "n"
          }
        },
        "distance": 25700,
        "place_id": "511e2d735f73b7354059c613e6e214f34840f00103f90121a8aa3801000000920308506f646c65736965"
      },
      "geometry": {
        "type": "Point",
        "coordinates": [
          21.7166042,
          49.8990749
        ]
      }
    },
    {
      "type": "Feature",
      "properties": {
        "name": "Łysa Góra",
        "country": "Polska",
        "country_code": "pl",
        "state": "województwo podkarpackie",
        "county": "powiat kolbuszowski",
        "city": "Zielonka",
        "municipality": "gmina Raniżów",
        "postcode": "36-130",
        "iso3166_2": "PL-18",
        "lon": 22.0344996,
        "lat": 50.2687683,
        "state_code": "PK",
        "formatted": "Łysa Góra, 36-130 Zielonka, Polska",
        "address_line1": "Łysa Góra",
        "address_line2": "36-130 Zielonka, Polska",
        "categories": [
          "natural",
          "natural.mountain",
          "natural.mountain.peak"
        ],
        "details": [],
        "datasource": {
          "sourcename": "openstreetmap",
          "attribution": "© OpenStreetMap contributors",
          "license": "Open Database License",
          "url": "https://www.openstreetmap.org/copyright",
          "raw": {
            "lat": 50.2687683,
            "lon": 22.0344996,
            "name": "Łysa Góra",
            "osm_id": 5253712090,
            "natural": "peak",
            "osm_type": "n"
          }
        },
        "distance": 25872,
        "place_id": "519fb93df7d408364059cb59e9ff66224940f00103f901da4825390100000092030bc5817973612047c3b37261"
      },
      "geometry": {
        "type": "Point",
        "coordinates": [
          22.0344996,
          50.2687683
        ]
      }
    },
    {
      "type": "Feature",
      "properties": {
        "name": "Gminny Ośrodek Kultury w Jaworniku Polskim",
        "country": "Polska",
        "country_code": "pl",
        "state": "województwo podkarpackie",
        "county": "powiat przeworski",
        "city": "Jawornik Polski",
        "hamlet": "Zakościół",
        "municipality": "gmina Jawornik Polski",
        "iso3166_2": "PL-18",
        "lon": 22.2828813,
        "lat": 49.8883482,
        "state_code": "PK",
        "formatted": "Gminny Ośrodek Kultury w Jaworniku Polskim, Jawornik Polski, powiat przeworski, Polska",
        "address_line1": "Gminny Ośrodek Kultury w Jaworniku Polskim",
        "address_line2": "Jawornik Polski, powiat przeworski, Polska",
        "categories": [
          "leisure",
          "leisure.park"
        ],
        "details": [],
        "datasource": {
          "sourcename": "openstreetmap",
          "attribution": "© OpenStreetMap contributors",
          "license": "Open Database License",
          "url": "https://www.openstreetmap.org/copyright",
          "raw": {
            "lat": 49.88830353865198,
            "lon": 22.282930566948846,
            "name": "Gminny Ośrodek Kultury w Jaworniku Polskim",
            "osm_id": 1240182052,
            "leisure": "park",
            "osm_type": "w"
          }
        },
        "distance": 25963,
        "place_id": "5183153c236e4836405936b72beeb3f14840f00102f90124adeb490000000092032b476d696e6e79204fc59b726f64656b204b756c747572792077204a61776f726e696b7520506f6c736b696d"
      },
      "geometry": {
        "type": "Point",
        "coordinates": [
          22.282930566948846,
          49.88830353865198
        ]
      }
    },
    {
      "type": "Feature",
      "properties": {
        "name": "Dancerówka",
        "country": "Polska",
        "country_code": "pl",
        "state": "województwo podkarpackie",
        "county": "powiat strzyżowski",
        "city": "gmina Wiśniowa",
        "postcode": "38-102",
        "iso3166_2": "PL-18",
        "lon": 21.7184632,
        "lat": 49.8934601,
        "state_code": "PK",
        "formatted": "Dancerówka, 38-102 gmina Wiśniowa, Polska",
        "address_line1": "Dancerówka",
        "address_line2": "38-102 gmina Wiśniowa, Polska",
        "categories": [
          "natural",
          "natural.mountain",
          "natural.mountain.peak"
        ],
        "details": [],
        "datasource": {
          "sourcename": "openstreetmap",
          "attribution": "© OpenStreetMap contributors",
          "license": "Open Database License",
          "url": "https://www.openstreetmap.org/copyright",
          "raw": {
            "lat": 49.8934601,
            "lon": 21.7184632,
            "name": "Dancerówka",
            "osm_id": 5245675555,
            "natural": "peak",
            "osm_type": "n"
          }
        },
        "distance": 25973,
        "place_id": "5127614b34edb7354059f4e38ae65cf24840f00103f90123a8aa380100000092030b44616e636572c3b3776b61"
      },
      "geometry": {
        "type": "Point",
        "coordinates": [
          21.7184632,
          49.8934601
        ]
      }
    },
    {
      "type": "Feature",
      "properties": {
        "name": "Wniarzówka",
        "country": "Polska",
        "country_code": "pl",
        "state": "województwo podkarpackie",
        "county": "powiat strzyżowski",
        "city": "Żyznów",
        "municipality": "gmina Strzyżów",
        "postcode": "38-111",
        "iso3166_2": "PL-18",
        "lon": 21.8433971,
        "lat": 49.8275093,
        "state_code": "PK",
        "formatted": "Wniarzówka, 38-111 Żyznów, Polska",
        "address_line1": "Wniarzówka",
        "address_line2": "38-111 Żyznów, Polska",
        "categories": [
          "natural",
          "natural.mountain",
          "natural.mountain.peak"
        ],
        "details": [],
        "datasource": {
          "sourcename": "openstreetmap",
          "attribution": "© OpenStreetMap contributors",
          "license": "Open Database License",
          "url": "https://www.openstreetmap.org/copyright",
          "raw": {
            "lat": 49.8275093,
            "lon": 21.8433971,
            "name": "Wniarzówka",
            "osm_id": 5245675353,
            "natural": "peak",
            "osm_type": "n"
          }
        },
        "distance": 25998,
        "place_id": "518f0a52dfe8d7354059645122d3ebe94840f00103f90159a7aa380100000092030b576e6961727ac3b3776b61"
      },
      "geometry": {
        "type": "Point",
        "coordinates": [
          21.8433971,
          49.8275093
        ]
      }
    },
    {
      "type": "Feature",
      "properties": {
        "name": "Rynek",
        "country": "Polska",
        "country_code": "pl",
        "state": "województwo podkarpackie",
        "county": "powiat przeworski",
        "city": "Jawornik Polski",
        "hamlet": "Zakościół",
        "municipality": "gmina Jawornik Polski",
        "iso3166_2": "PL-18",
        "lon": 22.2849072,
        "lat": 49.8890773,
        "state_code": "PK",
        "formatted": "Rynek, Jawornik Polski, powiat przeworski, Polska",
        "address_line1": "Rynek",
        "address_line2": "Jawornik Polski, powiat przeworski, Polska",
        "categories": [
          "leisure",
          "leisure.park"
        ],
        "details": [],
        "datasource": {
          "sourcename": "openstreetmap",
          "attribution": "© OpenStreetMap contributors",
          "license": "Open Database License",
          "url": "https://www.openstreetmap.org/copyright",
          "raw": {
            "lat": 49.88909980597678,
            "lon": 22.284962762969617,
            "name": "Rynek",
            "osm_id": 1240018818,
            "leisure": "park",
            "osm_type": "w"
          }
        },
        "distance": 26020,
        "place_id": "514588d351f3483640596dc6be05cef14840f00102f901822fe9490000000092030552796e656b"
      },
      "geometry": {
        "type": "Point",
        "coordinates": [
          22.284962762969617,
          49.88909980597678
        ]
      }
    },
    {
      "type": "Feature",
      "properties": {
        "name": "Na Dziale",
        "country": "Polska",
        "country_code": "pl",
        "state": "województwo podkarpackie",
        "county": "powiat przeworski",
        "city": "Manasterz",
        "municipality": "gmina Jawornik Polski",
        "postcode": "37-230",
        "iso3166_2": "PL-18",
        "lon": 22.3298576,
        "lat": 49.9321461,
        "state_code": "PK",
        "formatted": "Na Dziale, 37-230 Manasterz, Polska",
        "address_line1": "Na Dziale",
        "address_line2": "37-230 Manasterz, Polska",
        "categories": [
          "natural",
          "natural.mountain",
          "natural.mountain.peak"
        ],
        "details": [],
        "datasource": {
          "sourcename": "openstreetmap",
          "attribution": "© OpenStreetMap contributors",
          "license": "Open Database License",
          "url": "https://www.openstreetmap.org/copyright",
          "raw": {
            "lat": 49.9321461,
            "lon": 22.3298576,
            "name": "Na Dziale",
            "osm_id": 5244357266,
            "natural": "peak",
            "osm_type": "n"
          }
        },
        "distance": 26119,
        "place_id": "514956348c7154364059064c3b9050f74840f00103f901928a9638010000009203094e6120447a69616c65"
      },
      "geometry": {
        "type": "Point",
        "coordinates": [
          22.3298576,
          49.9321461
        ]
      }
    },
    {
      "type": "Feature",
      "properties": {
        "name": "Karczmarówka",
        "country": "Polska",
        "country_code": "pl",
        "state": "województwo podkarpackie",
        "county": "powiat strzyżowski",
        "city": "Lutcza",
        "municipality": "gmina Niebylec",
        "postcode": "38-112",
        "iso3166_2": "PL-18",
        "lon": 21.8949161,
        "lat": 49.8128757,
        "state_code": "PK",
        "formatted": "Karczmarówka, 38-112 Lutcza, Polska",
        "address_line1": "Karczmarówka",
        "address_line2": "38-112 Lutcza, Polska",
        "categories": [
          "natural",
          "natural.mountain",
          "natural.mountain.peak"
        ],
        "details": [
          "details"
        ],
        "datasource": {
          "sourcename": "openstreetmap",
          "attribution": "© OpenStreetMap contributors",
          "license": "Open Database License",
          "url": "https://www.openstreetmap.org/copyright",
          "raw": {
            "ele": 403,
            "lat": 49.8128757,
            "lon": 21.8949161,
            "name": "Karczmarówka",
            "osm_id": 5245675339,
            "natural": "peak",
            "osm_type": "n"
          }
        },
        "ele": 403,
        "distance": 26130,
        "place_id": "51f329b63819e5354059479b994f0ce84840f00103f9014ba7aa380100000092030d4b6172637a6d6172c3b3776b61"
      },
      "geometry": {
        "type": "Point",
        "coordinates": [
          21.8949161,
          49.8128757
        ]
      }
    },
    {
      "type": "Feature",
      "properties": {
        "country": "Polska",
        "country_code": "pl",
        "state": "województwo podkarpackie",
        "county": "powiat ropczycko-sędziszowski",
        "city": "Ropczyce",
        "hamlet": "Witkowice",
        "municipality": "gmina Ropczyce",
        "iso3166_2": "PL-18",
        "lon": 21.6401813,
        "lat": 50.0667372,
        "state_code": "PK",
        "formatted": "Ropczyce, powiat ropczycko-sędziszowski, Polska",
        "address_line1": "Ropczyce",
        "address_line2": "powiat ropczycko-sędziszowski, Polska",
        "categories": [
          "leisure",
          "leisure.park"
        ],
        "details": [],
        "datasource": {
          "sourcename": "openstreetmap",
          "attribution": "© OpenStreetMap contributors",
          "license": "Open Database License",
          "url": "https://www.openstreetmap.org/copyright",
          "raw": {
            "lat": 50.066608138250814,
            "lon": 21.641152461903957,
            "osm_id": 383668444,
            "leisure": "park",
            "osm_type": "w"
          }
        },
        "distance": 26194,
        "place_id": "519ca0579122a4354059a4b78f9d86084940f00102f901dc50de1600000000"
      },
      "geometry": {
        "type": "Point",
        "coordinates": [
          21.641152461903957,
          50.066608138250814
        ]
      }
    },
    {
      "type": "Feature",
      "properties": {
        "name": "Banasiowa Góra",
        "country": "Polska",
        "country_code": "pl",
        "state": "województwo podkarpackie",
        "county": "powiat strzyżowski",
        "city": "gmina Wiśniowa",
        "postcode": "38-102",
        "iso3166_2": "PL-18",
        "lon": 21.7100314,
        "lat": 49.8949194,
        "state_code": "PK",
        "formatted": "Banasiowa Góra, 38-102 gmina Wiśniowa, Polska",
        "address_line1": "Banasiowa Góra",
        "address_line2": "38-102 gmina Wiśniowa, Polska",
        "categories": [
          "natural",
          "natural.mountain",
          "natural.mountain.peak"
        ],
        "details": [],
        "datasource": {
          "sourcename": "openstreetmap",
          "attribution": "© OpenStreetMap contributors",
          "license": "Open Database License",
          "url": "https://www.openstreetmap.org/copyright",
          "raw": {
            "lat": 49.8949194,
            "lon": 21.7100314,
            "name": "Banasiowa Góra",
            "osm_id": 5245675554,
            "natural": "peak",
            "osm_type": "n"
          }
        },
        "distance": 26355,
        "place_id": "5112222a9ec4b535405929c709b88cf24840f00103f90122a8aa380100000092030f42616e6173696f77612047c3b37261"
      },
      "geometry": {
        "type": "Point",
        "coordinates": [
          21.7100314,
          49.8949194
        ]
      }
    },
    {
      "type": "Feature",
      "properties": {
        "name": "Dział Zięziów",
        "country": "Polska",
        "country_code": "pl",
        "state": "województwo podkarpackie",
        "county": "powiat przeworski",
        "city": "Manasterz",
        "municipality": "gmina Jawornik Polski",
        "postcode": "37-230",
        "iso3166_2": "PL-18",
        "lon": 22.3308103,
        "lat": 49.9269756,
        "state_code": "PK",
        "formatted": "Dział Zięziów, 37-230 Manasterz, Polska",
        "address_line1": "Dział Zięziów",
        "address_line2": "37-230 Manasterz, Polska",
        "categories": [
          "natural",
          "natural.mountain",
          "natural.mountain.peak"
        ],
        "details": [],
        "datasource": {
          "sourcename": "openstreetmap",
          "attribution": "© OpenStreetMap contributors",
          "license": "Open Database License",
          "url": "https://www.openstreetmap.org/copyright",
          "raw": {
            "lat": 49.9269756,
            "lon": 22.3308103,
            "name": "Dział Zięziów",
            "osm_id": 5244357265,
            "natural": "peak",
            "osm_type": "n"
          }
        },
        "distance": 26442,
        "place_id": "5111aedbfbaf543640595118ef22a7f64840f00103f901918a963801000000920310447a6961c582205a69c4997a69c3b377"
      },
      "geometry": {
        "type": "Point",
        "coordinates": [
          22.3308103,
          49.9269756
        ]
      }
    },
    {
      "type": "Feature",
      "properties": {
        "name": "Pańska Góra",
        "country": "Polska",
        "country_code": "pl",
        "state": "województwo podkarpackie",
        "county": "powiat brzozowski",
        "city": "Domaradz",
        "municipality": "gmina Domaradz",
        "postcode": "36-230",
        "iso3166_2": "PL-18",
        "lon": 21.9930612,
        "lat": 49.7984754,
        "state_code": "PK",
        "formatted": "Pańska Góra, 36-230 Domaradz, Polska",
        "address_line1": "Pańska Góra",
        "address_line2": "36-230 Domaradz, Polska",
        "categories": [
          "natural",
          "natural.mountain",
          "natural.mountain.peak"
        ],
        "details": [],
        "datasource": {
          "sourcename": "openstreetmap",
          "attribution": "© OpenStreetMap contributors",
          "license": "Open Database License",
          "url": "https://www.openstreetmap.org/copyright",
          "raw": {
            "lat": 49.7984754,
            "lon": 21.9930612,
            "name": "Pańska Góra",
            "osm_id": 5245672320,
            "natural": "peak",
            "osm_type": "n"
          }
        },
        "distance": 26542,
        "place_id": "5130ed404239fe3540598cd4207134e64840f00103f901809baa380100000092030d5061c584736b612047c3b37261"
      },
      "geometry": {
        "type": "Point",
        "coordinates": [
          21.9930612,
          49.7984754
        ]
      }
    },
    {
      "type": "Feature",
      "properties": {
        "country": "Polska",
        "country_code": "pl",
        "state": "województwo podkarpackie",
        "county": "powiat strzyżowski",
        "city": "Dobrzechów",
        "hamlet": "Góra",
        "municipality": "gmina Strzyżów",
        "iso3166_2": "PL-18",
        "lon": 21.7222917,
        "lat": 49.879565,
        "state_code": "PK",
        "formatted": "Dobrzechów, powiat strzyżowski, Polska",
        "address_line1": "Dobrzechów",
        "address_line2": "powiat strzyżowski, Polska",
        "categories": [
          "heritage",
          "leisure",
          "leisure.park"
        ],
        "details": [
          "details",
          "details.heritage"
        ],
        "datasource": {
          "sourcename": "openstreetmap",
          "attribution": "© OpenStreetMap contributors",
          "license": "Open Database License",
          "url": "https://www.openstreetmap.org/copyright",
          "raw": {
            "lat": 49.87956958314543,
            "lon": 21.72232550876102,
            "osm_id": 528328950,
            "leisure": "park",
            "ref:nid": "A-1045",
            "heritage": 2,
            "osm_type": "w"
          }
        },
        "ref_other": {
          "nid": "A-1045"
        },
        "heritage": {
          "level": 2,
          "ref": "A-1045"
        },
        "distance": 26743,
        "place_id": "51f5311553eab83540593f1571bc95f04840f00102f901f6a87d1f00000000"
      },
      "geometry": {
        "type": "Point",
        "coordinates": [
          21.72232550876102,
          49.87956958314543
        ]
      }
    },
    {
      "type": "Feature",
      "properties": {
        "name": "Sochówka",
        "country": "Polska",
        "country_code": "pl",
        "state": "województwo podkarpackie",
        "county": "powiat strzyżowski",
        "city": "Lutcza",
        "municipality": "gmina Niebylec",
        "postcode": "38-112",
        "iso3166_2": "PL-18",
        "lon": 21.8695314,
        "lat": 49.8126265,
        "state_code": "PK",
        "formatted": "Sochówka, 38-112 Lutcza, Polska",
        "address_line1": "Sochówka",
        "address_line2": "38-112 Lutcza, Polska",
        "categories": [
          "natural",
          "natural.mountain",
          "natural.mountain.peak"
        ],
        "details": [],
        "datasource": {
          "sourcename": "openstreetmap",
          "attribution": "© OpenStreetMap contributors",
          "license": "Open Database License",
          "url": "https://www.openstreetmap.org/copyright",
          "raw": {
            "lat": 49.8126265,
            "lon": 21.8695314,
            "name": "Sochówka",
            "osm_id": 5245675338,
            "natural": "peak",
            "osm_type": "n"
          }
        },
        "distance": 26759,
        "place_id": "5158d81d9c99de35405975ae282504e84840f00103f9014aa7aa3801000000920309536f6368c3b3776b61"
      },
      "geometry": {
        "type": "Point",
        "coordinates": [
          21.8695314,
          49.8126265
        ]
      }
    },
    {
      "type": "Feature",
      "properties": {
        "name": "Mijów",
        "country": "Polska",
        "country_code": "pl",
        "state": "województwo podkarpackie",
        "county": "powiat przeworski",
        "city": "Manasterz",
        "municipality": "gmina Jawornik Polski",
        "postcode": "37-225",
        "iso3166_2": "PL-18",
        "lon": 22.3567355,
        "lat": 49.9566103,
        "state_code": "PK",
        "formatted": "Mijów, 37-225 Manasterz, Polska",
        "address_line1": "Mijów",
        "address_line2": "37-225 Manasterz, Polska",
        "categories": [
          "natural",
          "natural.mountain",
          "natural.mountain.peak"
        ],
        "details": [],
        "datasource": {
          "sourcename": "openstreetmap",
          "attribution": "© OpenStreetMap contributors",
          "license": "Open Database License",
          "url": "https://www.openstreetmap.org/copyright",
          "raw": {
            "lat": 49.9566103,
            "lon": 22.3567355,
            "name": "Mijów",
            "osm_id": 5244357232,
            "natural": "peak",
            "osm_type": "n"
          }
        },
        "distance": 26825,
        "place_id": "517cd28904535b36405925c2d03472fa4840f00103f901708a9638010000009203064d696ac3b377"
      },
      "geometry": {
        "type": "Point",
        "coordinates": [
          22.3567355,
          49.9566103
        ]
      }
    },
    {
      "type": "Feature",
      "properties": {
        "name": "Góra pod Michałkiem",
        "country": "Polska",
        "country_code": "pl",
        "state": "województwo podkarpackie",
        "county": "powiat łańcucki",
        "city": "Białobrzegi",
        "municipality": "gmina Białobrzegi",
        "postcode": "37-114",
        "iso3166_2": "PL-18",
        "lon": 22.3483833,
        "lat": 50.1329811,
        "state_code": "PK",
        "formatted": "Góra pod Michałkiem, 37-114 Białobrzegi, Polska",
        "address_line1": "Góra pod Michałkiem",
        "address_line2": "37-114 Białobrzegi, Polska",
        "categories": [
          "natural",
          "natural.mountain",
          "natural.mountain.peak"
        ],
        "details": [],
        "datasource": {
          "sourcename": "openstreetmap",
          "attribution": "© OpenStreetMap contributors",
          "license": "Open Database License",
          "url": "https://www.openstreetmap.org/copyright",
          "raw": {
            "lat": 50.1329811,
            "lon": 22.3483833,
            "name": "Góra pod Michałkiem",
            "osm_id": 5253712280,
            "natural": "peak",
            "osm_type": "n"
          }
        },
        "distance": 26860,
        "place_id": "51f9f8dfa52f5936405939be518605114940f00103f901984925390100000092031547c3b3726120706f64204d69636861c5826b69656d"
      },
      "geometry": {
        "type": "Point",
        "coordinates": [
          22.3483833,
          50.1329811
        ]
      }
    },
    {
      "type": "Feature",
      "properties": {
        "name": "Skotnik",
        "country": "Polska",
        "country_code": "pl",
        "state": "województwo podkarpackie",
        "county": "powiat przeworski",
        "city": "Siedleczka",
        "municipality": "gmina Kańczuga",
        "postcode": "37-225",
        "iso3166_2": "PL-18",
        "lon": 22.3650651,
        "lat": 49.9694054,
        "state_code": "PK",
        "formatted": "Skotnik, 37-225 Siedleczka, Polska",
        "address_line1": "Skotnik",
        "address_line2": "37-225 Siedleczka, Polska",
        "categories": [
          "natural",
          "natural.mountain",
          "natural.mountain.peak"
        ],
        "details": [],
        "datasource": {
          "sourcename": "openstreetmap",
          "attribution": "© OpenStreetMap contributors",
          "license": "Open Database License",
          "url": "https://www.openstreetmap.org/copyright",
          "raw": {
            "lat": 49.9694054,
            "lon": 22.3650651,
            "name": "Skotnik",
            "osm_id": 5244357233,
            "natural": "peak",
            "osm_type": "n"
          }
        },
        "distance": 26955,
        "place_id": "51356909e8745d3640596cc8e47915fc4840f00103f901718a963801000000920307536b6f746e696b"
      },
      "geometry": {
        "type": "Point",
        "coordinates": [
          22.3650651,
          49.9694054
        ]
      }
    },
    {
      "type": "Feature",
      "properties": {
        "name": "Park dworski",
        "country": "Polska",
        "country_code": "pl",
        "state": "województwo podkarpackie",
        "county": "powiat strzyżowski",
        "city": "Żyznów",
        "hamlet": "Kisielnice",
        "municipality": "gmina Strzyżów",
        "iso3166_2": "PL-18",
        "lon": 21.8423171,
        "lat": 49.8178151,
        "state_code": "PK",
        "formatted": "Park dworski, Żyznów, powiat strzyżowski, Polska",
        "address_line1": "Park dworski",
        "address_line2": "Żyznów, powiat strzyżowski, Polska",
        "categories": [
          "leisure",
          "leisure.park"
        ],
        "details": [],
        "datasource": {
          "sourcename": "openstreetmap",
          "attribution": "© OpenStreetMap contributors",
          "license": "Open Database License",
          "url": "https://www.openstreetmap.org/copyright",
          "raw": {
            "lat": 49.817675823187706,
            "lon": 21.841996592106714,
            "name": "Park dworski",
            "osm_id": 528328989,
            "leisure": "park",
            "osm_type": "w"
          }
        },
        "distance": 27026,
        "place_id": "511971b2168dd735405919a9f399a9e84840f00102f9011da97d1f0000000092030c5061726b2064776f72736b69"
      },
      "geometry": {
        "type": "Point",
        "coordinates": [
          21.841996592106714,
          49.817675823187706
        ]
      }
    },
    {
      "type": "Feature",
      "properties": {
        "country": "Polska",
        "country_code": "pl",
        "state": "województwo podkarpackie",
        "county": "powiat kolbuszowski",
        "city": "Dzikowiec",
        "hamlet": "Zadworze",
        "municipality": "gmina Dzikowiec",
        "iso3166_2": "PL-18",
        "lon": 21.8616504,
        "lat": 50.2671803,
        "state_code": "PK",
        "formatted": "Dzikowiec, powiat kolbuszowski, Polska",
        "address_line1": "Dzikowiec",
        "address_line2": "powiat kolbuszowski, Polska",
        "categories": [
          "heritage",
          "leisure",
          "leisure.park"
        ],
        "details": [
          "details",
          "details.heritage"
        ],
        "datasource": {
          "sourcename": "openstreetmap",
          "attribution": "© OpenStreetMap contributors",
          "license": "Open Database License",
          "url": "https://www.openstreetmap.org/copyright",
          "raw": {
            "lat": 50.267021624293754,
            "lon": 21.862244310959607,
            "osm_id": 16349707,
            "leisure": "park",
            "ref:nid": "A-748",
            "heritage": 2,
            "osm_type": "r",
            "heritage:operator": "NID"
          }
        },
        "ref_other": {
          "nid": "A-748"
        },
        "heritage": {
          "level": 2,
          "operator": "NID",
          "ref": "A-748"
        },
        "distance": 27519,
        "place_id": "51cbbb0c0bbcdc3540594fd5bbc32d224940f00101f9010b7af90000000000"
      },
      "geometry": {
        "type": "Point",
        "coordinates": [
          21.862244310959607,
          50.267021624293754
        ]
      }
    },
    {
      "type": "Feature",
      "properties": {
        "name": "Górka Weryńska",
        "country": "Polska",
        "country_code": "pl",
        "state": "województwo podkarpackie",
        "county": "powiat kolbuszowski",
        "city": "Kolbuszowa",
        "municipality": "gmina Kolbuszowa",
        "postcode": "36-100",
        "iso3166_2": "PL-18",
        "lon": 21.7970471,
        "lat": 50.2470624,
        "state_code": "PK",
        "formatted": "Górka Weryńska, 36-100 Kolbuszowa, Polska",
        "address_line1": "Górka Weryńska",
        "address_line2": "36-100 Kolbuszowa, Polska",
        "categories": [
          "natural",
          "natural.mountain",
          "natural.mountain.peak"
        ],
        "details": [],
        "datasource": {
          "sourcename": "openstreetmap",
          "attribution": "© OpenStreetMap contributors",
          "license": "Open Database License",
          "url": "https://www.openstreetmap.org/copyright",
          "raw": {
            "lat": 50.2470624,
            "lon": 21.7970471,
            "name": "Górka Weryńska",
            "osm_id": 5253712228,
            "natural": "peak",
            "osm_type": "n"
          }
        },
        "distance": 27655,
        "place_id": "5124df5b470bcc3540591f09a0bd9f1f4940f00103f901644925390100000092031047c3b3726b612057657279c584736b61"
      },
      "geometry": {
        "type": "Point",
        "coordinates": [
          21.7970471,
          50.2470624
        ]
      }
    },
    {
      "type": "Feature",
      "properties": {
        "name": "Zmuliska",
        "country": "Polska",
        "country_code": "pl",
        "state": "województwo podkarpackie",
        "county": "powiat strzyżowski",
        "city": "gmina Wiśniowa",
        "postcode": "38-124",
        "iso3166_2": "PL-18",
        "lon": 21.6622424,
        "lat": 49.9209311,
        "state_code": "PK",
        "formatted": "Zmuliska, 38-124 gmina Wiśniowa, Polska",
        "address_line1": "Zmuliska",
        "address_line2": "38-124 gmina Wiśniowa, Polska",
        "categories": [
          "natural",
          "natural.mountain",
          "natural.mountain.peak"
        ],
        "details": [],
        "datasource": {
          "sourcename": "openstreetmap",
          "attribution": "© OpenStreetMap contributors",
          "license": "Open Database License",
          "url": "https://www.openstreetmap.org/copyright",
          "raw": {
            "lat": 49.9209311,
            "lon": 21.6622424,
            "name": "Zmuliska",
            "osm_id": 5245675470,
            "natural": "peak",
            "osm_type": "n"
          }
        },
        "distance": 27705,
        "place_id": "514906cab788a9354059452ffe11e1f54840f00103f901cea7aa38010000009203085a6d756c69736b61"
      },
      "geometry": {
        "type": "Point",
        "coordinates": [
          21.6622424,
          49.9209311
        ]
      }
    },
    {
      "type": "Feature",
      "properties": {
        "name": "Zespół myśliwski Julin",
        "country": "Polska",
        "country_code": "pl",
        "state": "województwo podkarpackie",
        "county": "powiat łańcucki",
        "city": "Wydrze",
        "hamlet": "Julin",
        "municipality": "gmina Rakszawa",
        "iso3166_2": "PL-18",
        "lon": 22.2615797,
        "lat": 50.2238481,
        "state_code": "PK",
        "formatted": "Zespół myśliwski Julin, Wydrze, powiat łańcucki, Polska",
        "address_line1": "Zespół myśliwski Julin",
        "address_line2": "Wydrze, powiat łańcucki, Polska",
        "categories": [
          "heritage",
          "leisure",
          "leisure.park"
        ],
        "details": [
          "details",
          "details.heritage",
          "details.wiki_and_media"
        ],
        "datasource": {
          "sourcename": "openstreetmap",
          "attribution": "© OpenStreetMap contributors",
          "license": "Open Database License",
          "url": "https://www.openstreetmap.org/copyright",
          "raw": {
            "lat": 50.2239398487483,
            "lon": 22.26170462707279,
            "name": "Zespół myśliwski Julin",
            "osm_id": 45282647,
            "barrier": "fence",
            "leisure": "park",
            "ref:nid": "A-841",
            "website": "https://www.rakszawa.pl/asp/pl_start.asp?typ=14&sub=7&menu=42&strona=1",
            "heritage": 2,
            "osm_type": "w",
            "wikidata": "Q11814958",
            "wikipedia": "pl:Pałac w Julinie",
            "description": "Zespół obiektów skłądajacych się z pałacyku myśliwskiego, służbówki, kuchni, lodowni, parku i aleji modrzewiowej."
          }
        },
        "website": "https://www.rakszawa.pl/asp/pl_start.asp?typ=14&sub=7&menu=42&strona=1",
        "description": "Zespół obiektów skłądajacych się z pałacyku myśliwskiego, służbówki, kuchni, lodowni, parku i aleji modrzewiowej.",
        "ref_other": {
          "nid": "A-841"
        },
        "wiki_and_media": {
          "wikidata": "Q11814958",
          "wikipedia": "pl:Pałac w Julinie"
        },
        "heritage": {
          "level": 2,
          "ref": "A-841"
        },
        "distance": 27783,
        "place_id": "51507d0e13ff4236405994529b0faa1c4940f00102f90157f5b202000000009203195a657370c3b3c582206d79c59b6c6977736b69204a756c696e"
      },
      "geometry": {
        "type": "Point",
        "coordinates": [
          22.26170462707279,
          50.2239398487483
        ]
      }
    },
    {
      "type": "Feature",
      "properties": {
        "name": "Jasna Góra",
        "country": "Polska",
        "country_code": "pl",
        "state": "województwo podkarpackie",
        "county": "powiat brzozowski",
        "city": "Wesoła",
        "municipality": "gmina Nozdrzec",
        "postcode": "36-233",
        "iso3166_2": "PL-18",
        "lon": 22.0984287,
        "lat": 49.794254,
        "state_code": "PK",
        "formatted": "Jasna Góra, 36-233 Wesoła, Polska",
        "address_line1": "Jasna Góra",
        "address_line2": "36-233 Wesoła, Polska",
        "categories": [
          "natural",
          "natural.mountain",
          "natural.mountain.peak"
        ],
        "details": [
          "details"
        ],
        "datasource": {
          "sourcename": "openstreetmap",
          "attribution": "© OpenStreetMap contributors",
          "license": "Open Database License",
          "url": "https://www.openstreetmap.org/copyright",
          "raw": {
            "ele": 405,
            "lat": 49.794254,
            "lon": 22.0984287,
            "name": "Jasna Góra",
            "osm_id": 2725626052,
            "natural": "peak",
            "osm_type": "n"
          }
        },
        "ele": 405,
        "distance": 27839,
        "place_id": "51e07c8f9f3219364059cd5b751daae54840f00103f901c4c075a20000000092030b4a61736e612047c3b37261"
      },
      "geometry": {
        "type": "Point",
        "coordinates": [
          22.0984287,
          49.794254
        ]
      }
    },
    {
      "type": "Feature",
      "properties": {
        "country": "Polska",
        "country_code": "pl",
        "state": "województwo podkarpackie",
        "county": "powiat brzozowski",
        "city": "Domaradz",
        "hamlet": "Miasteczko",
        "municipality": "gmina Domaradz",
        "postcode": "36-230",
        "iso3166_2": "PL-18",
        "lon": 21.9450901,
        "lat": 49.7892652,
        "state_code": "PK",
        "formatted": "36-230 Domaradz, Polska",
        "address_line1": "36-230 Domaradz",
        "address_line2": "Polska",
        "categories": [
          "leisure",
          "leisure.park"
        ],
        "details": [],
        "datasource": {
          "sourcename": "openstreetmap",
          "attribution": "© OpenStreetMap contributors",
          "license": "Open Database License",
          "url": "https://www.openstreetmap.org/copyright",
          "raw": {
            "lat": 49.789179451473885,
            "lon": 21.945070582616648,
            "osm_id": 1360181369,
            "leisure": "park",
            "osm_type": "w"
          }
        },
        "distance": 27888,
        "place_id": "510bc04c25f0f1354059b6600fd503e54840f00102f90179b8125100000000"
      },
      "geometry": {
        "type": "Point",
        "coordinates": [
          21.945070582616648,
          49.789179451473885
        ]
      }
    },
    {
      "type": "Feature",
      "properties": {
        "name": "Patryja",
        "country": "Polska",
        "country_code": "pl",
        "state": "województwo podkarpackie",
        "county": "powiat strzyżowski",
        "city": "Wysoka Strzyżowska",
        "municipality": "gmina Strzyżów",
        "postcode": "38-123",
        "iso3166_2": "PL-18",
        "lon": 21.7442353,
        "lat": 49.8501152,
        "state_code": "PK",
        "formatted": "Patryja, 38-123 Wysoka Strzyżowska, Polska",
        "address_line1": "Patryja",
        "address_line2": "38-123 Wysoka Strzyżowska, Polska",
        "categories": [
          "natural",
          "natural.mountain",
          "natural.mountain.peak"
        ],
        "details": [],
        "datasource": {
          "sourcename": "openstreetmap",
          "attribution": "© OpenStreetMap contributors",
          "license": "Open Database License",
          "url": "https://www.openstreetmap.org/copyright",
          "raw": {
            "lat": 49.8501152,
            "lon": 21.7442353,
            "name": "Patryja",
            "osm_id": 5263765575,
            "natural": "peak",
            "osm_type": "n"
          }
        },
        "distance": 27924,
        "place_id": "515c07623486be3540598fea2a93d0ec4840f00103f90147b0be390100000092030750617472796a61"
      },
      "geometry": {
        "type": "Point",
        "coordinates": [
          21.7442353,
          49.8501152
        ]
      }
    },
    {
      "type": "Feature",
      "properties": {
        "name": "Golgota",
        "country": "Polska",
        "country_code": "pl",
        "state": "województwo podkarpackie",
        "county": "powiat strzyżowski",
        "city": "Lutcza",
        "municipality": "gmina Niebylec",
        "postcode": "38-112",
        "iso3166_2": "PL-18",
        "lon": 21.8768133,
        "lat": 49.7983028,
        "state_code": "PK",
        "formatted": "Golgota, 38-112 Lutcza, Polska",
        "address_line1": "Golgota",
        "address_line2": "38-112 Lutcza, Polska",
        "categories": [
          "natural",
          "natural.mountain",
          "natural.mountain.peak"
        ],
        "details": [],
        "datasource": {
          "sourcename": "openstreetmap",
          "attribution": "© OpenStreetMap contributors",
          "license": "Open Database License",
          "url": "https://www.openstreetmap.org/copyright",
          "raw": {
            "lat": 49.7983028,
            "lon": 21.8768133,
            "name": "Golgota",
            "osm_id": 5254040909,
            "natural": "peak",
            "osm_type": "n"
          }
        },
        "distance": 28077,
        "place_id": "51a53220d676e0354059122741c92ee64840f00103f9014d4d2a3901000000920307476f6c676f7461"
      },
      "geometry": {
        "type": "Point",
        "coordinates": [
          21.8768133,
          49.7983028
        ]
      }
    },
    {
      "type": "Feature",
      "properties": {
        "name": "Zespół Pałacowo-Parkowy w Weryni",
        "country": "Polska",
        "country_code": "pl",
        "state": "województwo podkarpackie",
        "county": "powiat kolbuszowski",
        "city": "Werynia",
        "hamlet": "Kolonia",
        "municipality": "gmina Kolbuszowa",
        "iso3166_2": "PL-18",
        "lon": 21.8075215,
        "lat": 50.2556236,
        "state_code": "PK",
        "formatted": "Zespół Pałacowo-Parkowy w Weryni, Werynia, powiat kolbuszowski, Polska",
        "address_line1": "Zespół Pałacowo-Parkowy w Weryni",
        "address_line2": "Werynia, powiat kolbuszowski, Polska",
        "categories": [
          "leisure",
          "leisure.park"
        ],
        "details": [],
        "datasource": {
          "sourcename": "openstreetmap",
          "attribution": "© OpenStreetMap contributors",
          "license": "Open Database License",
          "url": "https://www.openstreetmap.org/copyright",
          "raw": {
            "lat": 50.255544511012616,
            "lon": 21.807254757910787,
            "name": "Zespół Pałacowo-Parkowy w Weryni",
            "osm_id": 509178607,
            "leisure": "park",
            "osm_type": "w"
          }
        },
        "distance": 28084,
        "place_id": "5169c4703fa8ce3540595abcbaaeb5204940f00102f901ef72591e000000009203235a657370c3b3c582205061c58261636f776f2d5061726b6f7779207720576572796e69"
      },
      "geometry": {
        "type": "Point",
        "coordinates": [
          21.807254757910787,
          50.255544511012616
        ]
      }
    },
    {
      "type": "Feature",
      "properties": {
        "name": "Łysa Góra",
        "country": "Polska",
        "country_code": "pl",
        "state": "województwo podkarpackie",
        "county": "powiat łańcucki",
        "city": "Kopanie Żołyńskie",
        "municipality": "gmina Żołynia",
        "postcode": "37-110",
        "iso3166_2": "PL-18",
        "lon": 22.3510996,
        "lat": 50.1577848,
        "state_code": "PK",
        "formatted": "Łysa Góra, 37-110 Kopanie Żołyńskie, Polska",
        "address_line1": "Łysa Góra",
        "address_line2": "37-110 Kopanie Żołyńskie, Polska",
        "categories": [
          "natural",
          "natural.mountain",
          "natural.mountain.peak"
        ],
        "details": [],
        "datasource": {
          "sourcename": "openstreetmap",
          "attribution": "© OpenStreetMap contributors",
          "license": "Open Database License",
          "url": "https://www.openstreetmap.org/copyright",
          "raw": {
            "lat": 50.1577848,
            "lon": 22.3510996,
            "name": "Łysa Góra",
            "osm_id": 5253712271,
            "natural": "peak",
            "osm_type": "n"
          }
        },
        "distance": 28236,
        "place_id": "5181a3d3a9e15936405928e7d54a32144940f00103f9018f4925390100000092030bc5817973612047c3b37261"
      },
      "geometry": {
        "type": "Point",
        "coordinates": [
          22.3510996,
          50.1577848
        ]
      }
    },
    {
      "type": "Feature",
      "properties": {
        "name": "Kamieńce",
        "country": "Polska",
        "country_code": "pl",
        "state": "województwo podkarpackie",
        "county": "powiat strzyżowski",
        "city": "Lutcza",
        "municipality": "gmina Niebylec",
        "postcode": "38-112",
        "iso3166_2": "PL-18",
        "lon": 21.8652722,
        "lat": 49.7990771,
        "state_code": "PK",
        "formatted": "Kamieńce, 38-112 Lutcza, Polska",
        "address_line1": "Kamieńce",
        "address_line2": "38-112 Lutcza, Polska",
        "categories": [
          "natural",
          "natural.mountain",
          "natural.mountain.peak"
        ],
        "details": [],
        "datasource": {
          "sourcename": "openstreetmap",
          "attribution": "© OpenStreetMap contributors",
          "license": "Open Database License",
          "url": "https://www.openstreetmap.org/copyright",
          "raw": {
            "lat": 49.7990771,
            "lon": 21.8652722,
            "name": "Kamieńce",
            "osm_id": 5254040908,
            "natural": "peak",
            "osm_type": "n"
          }
        },
        "distance": 28277,
        "place_id": "515223997a82dd354059c3bd8d2848e64840f00103f9014c4d2a39010000009203094b616d6965c5846365"
      },
      "geometry": {
        "type": "Point",
        "coordinates": [
          21.8652722,
          49.7990771
        ]
      }
    },
    {
      "type": "Feature",
      "properties": {
        "name": "Ogródek jordanowski",
        "country": "Polska",
        "country_code": "pl",
        "state": "województwo podkarpackie",
        "county": "powiat kolbuszowski",
        "city": "Kolbuszowa",
        "municipality": "gmina Kolbuszowa",
        "iso3166_2": "PL-18",
        "lon": 21.777286,
        "lat": 50.2454866,
        "state_code": "PK",
        "formatted": "Ogródek jordanowski, Kolbuszowa, powiat kolbuszowski, Polska",
        "address_line1": "Ogródek jordanowski",
        "address_line2": "Kolbuszowa, powiat kolbuszowski, Polska",
        "categories": [
          "leisure",
          "leisure.park"
        ],
        "details": [],
        "datasource": {
          "sourcename": "openstreetmap",
          "attribution": "© OpenStreetMap contributors",
          "license": "Open Database License",
          "url": "https://www.openstreetmap.org/copyright",
          "raw": {
            "lat": 50.24548291411221,
            "lon": 21.777210335774438,
            "name": "Ogródek jordanowski",
            "osm_id": 309216682,
            "leisure": "park",
            "osm_type": "w"
          }
        },
        "distance": 28295,
        "place_id": "51af43ae41f7c63540595bebeffb6b1f4940f00102f901aa456e12000000009203144f6772c3b364656b206a6f7264616e6f77736b69"
      },
      "geometry": {
        "type": "Point",
        "coordinates": [
          21.777210335774438,
          50.24548291411221
        ]
      }
    },
    {
      "type": "Feature",
      "properties": {
        "country": "Polska",
        "country_code": "pl",
        "state": "województwo podkarpackie",
        "county": "powiat przeworski",
        "city": "Ostrów",
        "municipality": "gmina Gać",
        "iso3166_2": "PL-18",
        "lon": 22.3979001,
        "lat": 50.0185676,
        "state_code": "PK",
        "formatted": "Ostrów, powiat przeworski, Polska",
        "address_line1": "Ostrów",
        "address_line2": "powiat przeworski, Polska",
        "categories": [
          "leisure",
          "leisure.park"
        ],
        "details": [],
        "datasource": {
          "sourcename": "openstreetmap",
          "attribution": "© OpenStreetMap contributors",
          "license": "Open Database License",
          "url": "https://www.openstreetmap.org/copyright",
          "raw": {
            "lat": 50.01850947401171,
            "lon": 22.397910422986996,
            "osm_id": 454647152,
            "leisure": "park",
            "osm_type": "w"
          }
        },
        "distance": 28300,
        "place_id": "5178771d75dd65364059f2c5b8845e024940f00102f901705d191b00000000"
      },
      "geometry": {
        "type": "Point",
        "coordinates": [
          22.397910422986996,
          50.01850947401171
        ]
      }
    },
    {
      "type": "Feature",
      "properties": {
        "name": "Strażowa",
        "country": "Polska",
        "country_code": "pl",
        "state": "województwo podkarpackie",
        "county": "powiat ropczycko-sędziszowski",
        "city": "Wielopole Skrzyńskie",
        "municipality": "gmina Wielopole Skrzyńskie",
        "postcode": "39-110",
        "iso3166_2": "PL-18",
        "lon": 21.6325533,
        "lat": 49.9509652,
        "state_code": "PK",
        "formatted": "Strażowa, 39-110 Wielopole Skrzyńskie, Polska",
        "address_line1": "Strażowa",
        "address_line2": "39-110 Wielopole Skrzyńskie, Polska",
        "categories": [
          "natural",
          "natural.mountain",
          "natural.mountain.peak"
        ],
        "details": [],
        "datasource": {
          "sourcename": "openstreetmap",
          "attribution": "© OpenStreetMap contributors",
          "license": "Open Database License",
          "url": "https://www.openstreetmap.org/copyright",
          "raw": {
            "lat": 49.9509652,
            "lon": 21.6325533,
            "name": "Strażowa",
            "osm_id": 5245675468,
            "natural": "peak",
            "osm_type": "n"
          }
        },
        "distance": 28301,
        "place_id": "51157a5803efa13540592ad1483ab9f94840f00103f901cca7aa380100000092030953747261c5bc6f7761"
      },
      "geometry": {
        "type": "Point",
        "coordinates": [
          21.6325533,
          49.9509652
        ]
      }
    },
    {
      "type": "Feature",
      "properties": {
        "name": "Polanka",
        "country": "Polska",
        "country_code": "pl",
        "state": "województwo podkarpackie",
        "county": "powiat strzyżowski",
        "city": "Lutcza",
        "municipality": "gmina Niebylec",
        "postcode": "38-112",
        "iso3166_2": "PL-18",
        "lon": 21.9217581,
        "lat": 49.7881416,
        "state_code": "PK",
        "formatted": "Polanka, 38-112 Lutcza, Polska",
        "address_line1": "Polanka",
        "address_line2": "38-112 Lutcza, Polska",
        "categories": [
          "natural",
          "natural.mountain",
          "natural.mountain.peak"
        ],
        "details": [],
        "datasource": {
          "sourcename": "openstreetmap",
          "attribution": "© OpenStreetMap contributors",
          "license": "Open Database License",
          "url": "https://www.openstreetmap.org/copyright",
          "raw": {
            "lat": 49.7881416,
            "lon": 21.9217581,
            "name": "Polanka",
            "osm_id": 5254040907,
            "natural": "peak",
            "osm_type": "n"
          }
        },
        "distance": 28303,
        "place_id": "51b752be56f8eb354059fe4eeed2e1e44840f00103f9014b4d2a3901000000920307506f6c616e6b61"
      },
      "geometry": {
        "type": "Point",
        "coordinates": [
          21.9217581,
          49.7881416
        ]
      }
    },
    {
      "type": "Feature",
      "properties": {
        "name": "Jasna Góra",
        "country": "Polska",
        "country_code": "pl",
        "state": "województwo podkarpackie",
        "county": "powiat brzozowski",
        "city": "Golcowa",
        "municipality": "gmina Domaradz",
        "postcode": "36-231",
        "iso3166_2": "PL-18",
        "lon": 22.0030167,
        "lat": 49.7822172,
        "state_code": "PK",
        "formatted": "Jasna Góra, 36-231 Golcowa, Polska",
        "address_line1": "Jasna Góra",
        "address_line2": "36-231 Golcowa, Polska",
        "categories": [
          "natural",
          "natural.mountain",
          "natural.mountain.peak"
        ],
        "details": [],
        "datasource": {
          "sourcename": "openstreetmap",
          "attribution": "© OpenStreetMap contributors",
          "license": "Open Database License",
          "url": "https://www.openstreetmap.org/copyright",
          "raw": {
            "lat": 49.7822172,
            "lon": 22.0030167,
            "name": "Jasna Góra",
            "osm_id": 5255763998,
            "natural": "peak",
            "osm_type": "n"
          }
        },
        "distance": 28339,
        "place_id": "5183d7d3b3c500364059312f76b11fe44840f00103f9011e9844390100000092030b4a61736e612047c3b37261"
      },
      "geometry": {
        "type": "Point",
        "coordinates": [
          22.0030167,
          49.7822172
        ]
      }
    },
    {
      "type": "Feature",
      "properties": {
        "name": "Godowska Góra",
        "country": "Polska",
        "country_code": "pl",
        "state": "województwo podkarpackie",
        "county": "powiat strzyżowski",
        "city": "Godowa",
        "municipality": "gmina Strzyżów",
        "postcode": "38-111",
        "iso3166_2": "PL-18",
        "lon": 21.7991798,
        "lat": 49.8191667,
        "state_code": "PK",
        "formatted": "Godowska Góra, 38-111 Godowa, Polska",
        "address_line1": "Godowska Góra",
        "address_line2": "38-111 Godowa, Polska",
        "categories": [
          "natural",
          "natural.mountain",
          "natural.mountain.peak"
        ],
        "details": [
          "details"
        ],
        "datasource": {
          "sourcename": "openstreetmap",
          "attribution": "© OpenStreetMap contributors",
          "license": "Open Database License",
          "url": "https://www.openstreetmap.org/copyright",
          "raw": {
            "ele": 485,
            "lat": 49.8191667,
            "lon": 21.7991798,
            "name": "Godowska Góra",
            "osm_id": 2333288948,
            "natural": "peak",
            "osm_type": "n"
          }
        },
        "ele": 485,
        "distance": 28343,
        "place_id": "51b39f200c97cc354059723c5574dae84840f00103f901f429138b0000000092030e476f646f77736b612047c3b37261"
      },
      "geometry": {
        "type": "Point",
        "coordinates": [
          21.7991798,
          49.8191667
        ]
      }
    },
    {
      "type": "Feature",
      "properties": {
        "name": "Bulwary nad Nilem imienia Błogosławionego Księdza Kardynała Stefana Wyszyńskiego",
        "country": "Polska",
        "country_code": "pl",
        "state": "województwo podkarpackie",
        "county": "powiat kolbuszowski",
        "city": "Kolbuszowa",
        "municipality": "gmina Kolbuszowa",
        "iso3166_2": "PL-18",
        "lon": 21.7754551,
        "lat": 50.2455877,
        "state_code": "PK",
        "formatted": "Bulwary nad Nilem imienia Błogosławionego Księdza Kardynała Stefana Wyszyńskiego, Kolbuszowa, powiat kolbuszowski, Polska",
        "address_line1": "Bulwary nad Nilem imienia Błogosławionego Księdza Kardynała Stefana Wyszyńskiego",
        "address_line2": "Kolbuszowa, powiat kolbuszowski, Polska",
        "categories": [
          "leisure",
          "leisure.park"
        ],
        "details": [],
        "datasource": {
          "sourcename": "openstreetmap",
          "attribution": "© OpenStreetMap contributors",
          "license": "Open Database License",
          "url": "https://www.openstreetmap.org/copyright",
          "raw": {
            "lat": 50.24536913469244,
            "lon": 21.77573034785091,
            "name": "Bulwary nad Nilem imienia Błogosławionego Księdza Kardynała Stefana Wyszyńskiego",
            "osm_id": 1016956543,
            "leisure": "park",
            "osm_type": "w"
          }
        },
        "distance": 28345,
        "place_id": "51cc889a4396c6354059d6797c41681f4940f00102f9017f869d3c0000000092035542756c77617279206e6164204e696c656d20696d69656e69612042c5826f676f73c5826177696f6e65676f204b7369c499647a61204b617264796e61c582612053746566616e61205779737a79c584736b6965676f"
      },
      "geometry": {
        "type": "Point",
        "coordinates": [
          21.77573034785091,
          50.24536913469244
        ]
      }
    },
    {
      "type": "Feature",
      "properties": {
        "name": "Siwa Góra",
        "country": "Polska",
        "country_code": "pl",
        "state": "województwo podkarpackie",
        "county": "powiat przeworski",
        "city": "Hucisko Jawornickie",
        "municipality": "gmina Jawornik Polski",
        "postcode": "37-230",
        "iso3166_2": "PL-18",
        "lon": 22.3353109,
        "lat": 49.897344,
        "state_code": "PK",
        "formatted": "Siwa Góra, 37-230 Hucisko Jawornickie, Polska",
        "address_line1": "Siwa Góra",
        "address_line2": "37-230 Hucisko Jawornickie, Polska",
        "categories": [
          "natural",
          "natural.mountain",
          "natural.mountain.peak"
        ],
        "details": [],
        "datasource": {
          "sourcename": "openstreetmap",
          "attribution": "© OpenStreetMap contributors",
          "license": "Open Database License",
          "url": "https://www.openstreetmap.org/copyright",
          "raw": {
            "lat": 49.897344,
            "lon": 22.3353109,
            "name": "Siwa Góra",
            "osm_id": 5244357276,
            "natural": "peak",
            "osm_type": "n"
          }
        },
        "distance": 28395,
        "place_id": "51097e65efd65536405983a10e2bdcf24840f00103f9019c8a96380100000092030a536977612047c3b37261"
      },
      "geometry": {
        "type": "Point",
        "coordinates": [
          22.3353109,
          49.897344
        ]
      }
    },
    {
      "type": "Feature",
      "properties": {
        "country": "Polska",
        "country_code": "pl",
        "state": "województwo podkarpackie",
        "county": "powiat kolbuszowski",
        "city": "Kolbuszowa",
        "municipality": "gmina Kolbuszowa",
        "iso3166_2": "PL-18",
        "lon": 21.7741422,
        "lat": 50.2458529,
        "state_code": "PK",
        "formatted": "Kolbuszowa, powiat kolbuszowski, Polska",
        "address_line1": "Kolbuszowa",
        "address_line2": "powiat kolbuszowski, Polska",
        "categories": [
          "leisure",
          "leisure.park"
        ],
        "details": [],
        "datasource": {
          "sourcename": "openstreetmap",
          "attribution": "© OpenStreetMap contributors",
          "license": "Open Database License",
          "url": "https://www.openstreetmap.org/copyright",
          "raw": {
            "lat": 50.245861090795664,
            "lon": 21.774131325435658,
            "osm_id": 1095219805,
            "leisure": "park",
            "osm_type": "w"
          }
        },
        "distance": 28456,
        "place_id": "51278e75782dc6354059c3295060781f4940f00102f9015dba474100000000"
      },
      "geometry": {
        "type": "Point",
        "coordinates": [
          21.774131325435658,
          50.245861090795664
        ]
      }
    },
    {
      "type": "Feature",
      "properties": {
        "name": "Żydowska Góra",
        "country": "Polska",
        "country_code": "pl",
        "state": "województwo podkarpackie",
        "county": "powiat rzeszowski",
        "city": "Dynów",
        "postcode": "36-065",
        "iso3166_2": "PL-18",
        "lon": 22.2328714,
        "lat": 49.8272916,
        "state_code": "PK",
        "formatted": "Żydowska Góra, 36-065 Dynów, Polska",
        "address_line1": "Żydowska Góra",
        "address_line2": "36-065 Dynów, Polska",
        "categories": [
          "natural",
          "natural.mountain",
          "natural.mountain.peak"
        ],
        "details": [],
        "datasource": {
          "sourcename": "openstreetmap",
          "attribution": "© OpenStreetMap contributors",
          "license": "Open Database License",
          "url": "https://www.openstreetmap.org/copyright",
          "raw": {
            "lat": 49.8272916,
            "lon": 22.2328714,
            "name": "Żydowska Góra",
            "osm_id": 5245819746,
            "natural": "peak",
            "osm_type": "n"
          }
        },
        "distance": 28532,
        "place_id": "517a2cc7759d3b364059b520efb0e4e94840f00103f90162dbac380100000092030fc5bb79646f77736b612047c3b37261"
      },
      "geometry": {
        "type": "Point",
        "coordinates": [
          22.2328714,
          49.8272916
        ]
      }
    },
    {
      "type": "Feature",
      "properties": {
        "name": "Wisowa Górka",
        "country": "Polska",
        "country_code": "pl",
        "state": "województwo podkarpackie",
        "county": "powiat ropczycko-sędziszowski",
        "city": "Ropczyce",
        "municipality": "gmina Ropczyce",
        "postcode": "39-103",
        "iso3166_2": "PL-18",
        "lon": 21.610172,
        "lat": 50.0845114,
        "state_code": "PK",
        "formatted": "Wisowa Górka, 39-103 Ropczyce, Polska",
        "address_line1": "Wisowa Górka",
        "address_line2": "39-103 Ropczyce, Polska",
        "categories": [
          "natural",
          "natural.mountain",
          "natural.mountain.peak"
        ],
        "details": [],
        "datasource": {
          "sourcename": "openstreetmap",
          "attribution": "© OpenStreetMap contributors",
          "license": "Open Database License",
          "url": "https://www.openstreetmap.org/copyright",
          "raw": {
            "lat": 50.0845114,
            "lon": 21.610172,
            "name": "Wisowa Górka",
            "osm_id": 5253711628,
            "natural": "peak",
            "osm_type": "n"
          }
        },
        "distance": 28691,
        "place_id": "5156ef703b349c354059d0910145d10a4940f00103f9010c4725390100000092030d5769736f77612047c3b3726b61"
      },
      "geometry": {
        "type": "Point",
        "coordinates": [
          21.610172,
          50.0845114
        ]
      }
    },
    {
      "type": "Feature",
      "properties": {
        "name": "Hyb",
        "country": "Polska",
        "country_code": "pl",
        "state": "województwo podkarpackie",
        "county": "powiat brzozowski",
        "city": "Domaradz",
        "municipality": "gmina Domaradz",
        "postcode": "36-230",
        "iso3166_2": "PL-18",
        "lon": 21.9603394,
        "lat": 49.780218,
        "state_code": "PK",
        "formatted": "Hyb, 36-230 Domaradz, Polska",
        "address_line1": "Hyb",
        "address_line2": "36-230 Domaradz, Polska",
        "categories": [
          "natural",
          "natural.mountain",
          "natural.mountain.peak"
        ],
        "details": [
          "details"
        ],
        "datasource": {
          "sourcename": "openstreetmap",
          "attribution": "© OpenStreetMap contributors",
          "license": "Open Database License",
          "url": "https://www.openstreetmap.org/copyright",
          "raw": {
            "ele": 405,
            "lat": 49.780218,
            "lon": 21.9603394,
            "name": "Hyb",
            "osm_id": 2725605388,
            "natural": "peak",
            "osm_type": "n"
          }
        },
        "ele": 405,
        "distance": 28733,
        "place_id": "516d0f8ccdd8f535405911e0f42edee34840f00103f9010c7075a200000000920303487962"
      },
      "geometry": {
        "type": "Point",
        "coordinates": [
          21.9603394,
          49.780218
        ]
      }
    },
    {
      "type": "Feature",
      "properties": {
        "name": "Skotnik",
        "country": "Polska",
        "country_code": "pl",
        "state": "województwo podkarpackie",
        "county": "powiat strzyżowski",
        "city": "gmina Wiśniowa",
        "postcode": "38-124",
        "iso3166_2": "PL-18",
        "lon": 21.6681689,
        "lat": 49.8960338,
        "state_code": "PK",
        "formatted": "Skotnik, 38-124 gmina Wiśniowa, Polska",
        "address_line1": "Skotnik",
        "address_line2": "38-124 gmina Wiśniowa, Polska",
        "categories": [
          "natural",
          "natural.mountain",
          "natural.mountain.peak"
        ],
        "details": [],
        "datasource": {
          "sourcename": "openstreetmap",
          "attribution": "© OpenStreetMap contributors",
          "license": "Open Database License",
          "url": "https://www.openstreetmap.org/copyright",
          "raw": {
            "lat": 49.8960338,
            "lon": 21.6681689,
            "name": "Skotnik",
            "osm_id": 5245675469,
            "natural": "peak",
            "osm_type": "n"
          }
        },
        "distance": 28747,
        "place_id": "514db4f51d0dab354059288e4d3cb1f24840f00103f901cda7aa3801000000920307536b6f746e696b"
      },
      "geometry": {
        "type": "Point",
        "coordinates": [
          21.6681689,
          49.8960338
        ]
      }
    },
    {
      "type": "Feature",
      "properties": {
        "name": "Kamieniec",
        "country": "Polska",
        "country_code": "pl",
        "state": "województwo podkarpackie",
        "county": "powiat brzozowski",
        "city": "Wesoła",
        "municipality": "gmina Nozdrzec",
        "postcode": "36-203",
        "iso3166_2": "PL-18",
        "lon": 22.106574,
        "lat": 49.786555,
        "state_code": "PK",
        "formatted": "Kamieniec, 36-203 Wesoła, Polska",
        "address_line1": "Kamieniec",
        "address_line2": "36-203 Wesoła, Polska",
        "categories": [
          "natural",
          "natural.mountain",
          "natural.mountain.peak"
        ],
        "details": [
          "details"
        ],
        "datasource": {
          "sourcename": "openstreetmap",
          "attribution": "© OpenStreetMap contributors",
          "license": "Open Database License",
          "url": "https://www.openstreetmap.org/copyright",
          "raw": {
            "ele": 377,
            "lat": 49.786555,
            "lon": 22.106574,
            "name": "Kamieniec",
            "osm_id": 2726886943,
            "natural": "peak",
            "osm_type": "n"
          }
        },
        "ele": 377,
        "distance": 28814,
        "place_id": "51999a046f481b364059adc090d5ade44840f00103f9011ffe88a2000000009203094b616d69656e696563"
      },
      "geometry": {
        "type": "Point",
        "coordinates": [
          22.106574,
          49.786555
        ]
      }
    },
    {
      "type": "Feature",
      "properties": {
        "name": "Strzałówka",
        "country": "Polska",
        "country_code": "pl",
        "state": "województwo podkarpackie",
        "county": "powiat strzyżowski",
        "city": "Lutcza",
        "municipality": "gmina Niebylec",
        "postcode": "38-112",
        "iso3166_2": "PL-18",
        "lon": 21.8867801,
        "lat": 49.7859118,
        "state_code": "PK",
        "formatted": "Strzałówka, 38-112 Lutcza, Polska",
        "address_line1": "Strzałówka",
        "address_line2": "38-112 Lutcza, Polska",
        "categories": [
          "natural",
          "natural.mountain",
          "natural.mountain.peak"
        ],
        "details": [],
        "datasource": {
          "sourcename": "openstreetmap",
          "attribution": "© OpenStreetMap contributors",
          "license": "Open Database License",
          "url": "https://www.openstreetmap.org/copyright",
          "raw": {
            "lat": 49.7859118,
            "lon": 21.8867801,
            "name": "Strzałówka",
            "osm_id": 5254040910,
            "natural": "peak",
            "osm_type": "n"
          }
        },
        "distance": 29169,
        "place_id": "515d3e480504e33540592f4503c298e44840f00103f9014e4d2a390100000092030c5374727a61c582c3b3776b61"
      },
      "geometry": {
        "type": "Point",
        "coordinates": [
          21.8867801,
          49.7859118
        ]
      }
    },
    {
      "type": "Feature",
      "properties": {
        "name": "Kłapówka",
        "country": "Polska",
        "country_code": "pl",
        "state": "województwo podkarpackie",
        "county": "powiat przeworski",
        "city": "Zagórze",
        "municipality": "gmina Jawornik Polski",
        "postcode": "37-222",
        "iso3166_2": "PL-18",
        "lon": 22.3757184,
        "lat": 49.9296283,
        "state_code": "PK",
        "formatted": "Kłapówka, 37-222 Zagórze, Polska",
        "address_line1": "Kłapówka",
        "address_line2": "37-222 Zagórze, Polska",
        "categories": [
          "natural",
          "natural.mountain",
          "natural.mountain.peak"
        ],
        "details": [],
        "datasource": {
          "sourcename": "openstreetmap",
          "attribution": "© OpenStreetMap contributors",
          "license": "Open Database License",
          "url": "https://www.openstreetmap.org/copyright",
          "raw": {
            "lat": 49.9296283,
            "lon": 22.3757184,
            "name": "Kłapówka",
            "osm_id": 5244357267,
            "natural": "peak",
            "osm_type": "n"
          }
        },
        "distance": 29213,
        "place_id": "516581c0142f60364059d1f7640ffef64840f00103f901938a96380100000092030a4bc5826170c3b3776b61"
      },
      "geometry": {
        "type": "Point",
        "coordinates": [
          22.3757184,
          49.9296283
        ]
      }
    },
    {
      "type": "Feature",
      "properties": {
        "name": "Łysa Góra",
        "country": "Polska",
        "country_code": "pl",
        "state": "województwo podkarpackie",
        "county": "powiat strzyżowski",
        "city": "Lutcza",
        "municipality": "gmina Niebylec",
        "postcode": "38-111",
        "iso3166_2": "PL-18",
        "lon": 21.8427556,
        "lat": 49.7958582,
        "state_code": "PK",
        "formatted": "Łysa Góra, 38-111 Lutcza, Polska",
        "address_line1": "Łysa Góra",
        "address_line2": "38-111 Lutcza, Polska",
        "categories": [
          "natural",
          "natural.mountain",
          "natural.mountain.peak"
        ],
        "details": [],
        "datasource": {
          "sourcename": "openstreetmap",
          "attribution": "© OpenStreetMap contributors",
          "license": "Open Database License",
          "url": "https://www.openstreetmap.org/copyright",
          "raw": {
            "lat": 49.7958582,
            "lon": 21.8427556,
            "name": "Łysa Góra",
            "osm_id": 5245675356,
            "natural": "peak",
            "osm_type": "n"
          }
        },
        "distance": 29215,
        "place_id": "515785bcd4bed735405970a076aedee54840f00103f9015ca7aa380100000092030bc5817973612047c3b37261"
      },
      "geometry": {
        "type": "Point",
        "coordinates": [
          21.8427556,
          49.7958582
        ]
      }
    },
    {
      "type": "Feature",
      "properties": {
        "country": "Polska",
        "country_code": "pl",
        "state": "województwo podkarpackie",
        "county": "powiat przeworski",
        "city": "Nowosielce",
        "hamlet": "Folwark",
        "municipality": "gmina Przeworsk",
        "iso3166_2": "PL-18",
        "lon": 22.4113442,
        "lat": 50.0551319,
        "state_code": "PK",
        "formatted": "Nowosielce, powiat przeworski, Polska",
        "address_line1": "Nowosielce",
        "address_line2": "powiat przeworski, Polska",
        "categories": [
          "leisure",
          "leisure.park"
        ],
        "details": [],
        "datasource": {
          "sourcename": "openstreetmap",
          "attribution": "© OpenStreetMap contributors",
          "license": "Open Database License",
          "url": "https://www.openstreetmap.org/copyright",
          "raw": {
            "lat": 50.05516211807438,
            "lon": 22.41123945780463,
            "osm_id": 533343745,
            "leisure": "park",
            "osm_type": "w"
          }
        },
        "distance": 29239,
        "place_id": "517d1836fd4669364059c48d628d0f074940f00102f901012eca1f00000000"
      },
      "geometry": {
        "type": "Point",
        "coordinates": [
          22.41123945780463,
          50.05516211807438
        ]
      }
    },
    {
      "type": "Feature",
      "properties": {
        "name": "Graniczna Górka",
        "country": "Polska",
        "country_code": "pl",
        "state": "województwo podkarpackie",
        "county": "powiat ropczycko-sędziszowski",
        "city": "Ropczyce",
        "municipality": "gmina Ropczyce",
        "postcode": "39-103",
        "iso3166_2": "PL-18",
        "lon": 21.6028856,
        "lat": 50.0862703,
        "state_code": "PK",
        "formatted": "Graniczna Górka, 39-103 Ropczyce, Polska",
        "address_line1": "Graniczna Górka",
        "address_line2": "39-103 Ropczyce, Polska",
        "categories": [
          "natural",
          "natural.mountain",
          "natural.mountain.peak"
        ],
        "details": [],
        "datasource": {
          "sourcename": "openstreetmap",
          "attribution": "© OpenStreetMap contributors",
          "license": "Open Database License",
          "url": "https://www.openstreetmap.org/copyright",
          "raw": {
            "lat": 50.0862703,
            "lon": 21.6028856,
            "name": "Graniczna Górka",
            "osm_id": 5253711627,
            "natural": "peak",
            "osm_type": "n"
          }
        },
        "distance": 29240,
        "place_id": "51b63aefb5569a354059dd8ebae70a0b4940f00103f9010b472539010000009203104772616e69637a6e612047c3b3726b61"
      },
      "geometry": {
        "type": "Point",
        "coordinates": [
          21.6028856,
          50.0862703
        ]
      }
    },
    {
      "type": "Feature",
      "properties": {
        "name": "Park podworski",
        "country": "Polska",
        "country_code": "pl",
        "state": "województwo podkarpackie",
        "county": "powiat rzeszowski",
        "city": "Dynów",
        "iso3166_2": "PL-18",
        "lon": 22.2267815,
        "lat": 49.8167425,
        "state_code": "PK",
        "formatted": "Park podworski, Dynów, powiat rzeszowski, Polska",
        "address_line1": "Park podworski",
        "address_line2": "Dynów, powiat rzeszowski, Polska",
        "categories": [
          "heritage",
          "leisure",
          "leisure.park"
        ],
        "details": [
          "details",
          "details.heritage"
        ],
        "datasource": {
          "sourcename": "openstreetmap",
          "attribution": "© OpenStreetMap contributors",
          "license": "Open Database License",
          "url": "https://www.openstreetmap.org/copyright",
          "raw": {
            "lat": 49.816786211234394,
            "lon": 22.226807841691496,
            "name": "Park podworski",
            "osm_id": 318035838,
            "leisure": "park",
            "ref:nid": "A-591",
            "heritage": 2,
            "osm_type": "w",
            "start_date": "~1800",
            "heritage:operator": "nid"
          }
        },
        "ref_other": {
          "nid": "A-591"
        },
        "heritage": {
          "level": 2,
          "operator": "nid",
          "ref": "A-591"
        },
        "distance": 29256,
        "place_id": "51948a2614103a364059a98958738ce84840f00102f9017ed7f4120000000092030e5061726b20706f64776f72736b69"
      },
      "geometry": {
        "type": "Point",
        "coordinates": [
          22.226807841691496,
          49.816786211234394
        ]
      }
    },
    {
      "type": "Feature",
      "properties": {
        "name": "Księża Góra",
        "country": "Polska",
        "country_code": "pl",
        "state": "województwo podkarpackie",
        "county": "powiat łańcucki",
        "city": "Budy Łańcuckie",
        "municipality": "gmina Białobrzegi",
        "postcode": "37-114",
        "iso3166_2": "PL-18",
        "lon": 22.3860042,
        "lat": 50.1353893,
        "state_code": "PK",
        "formatted": "Księża Góra, 37-114 Budy Łańcuckie, Polska",
        "address_line1": "Księża Góra",
        "address_line2": "37-114 Budy Łańcuckie, Polska",
        "categories": [
          "natural",
          "natural.mountain",
          "natural.mountain.peak"
        ],
        "details": [],
        "datasource": {
          "sourcename": "openstreetmap",
          "attribution": "© OpenStreetMap contributors",
          "license": "Open Database License",
          "url": "https://www.openstreetmap.org/copyright",
          "raw": {
            "lat": 50.1353893,
            "lon": 22.3860042,
            "name": "Księża Góra",
            "osm_id": 5253712279,
            "natural": "peak",
            "osm_type": "n"
          }
        },
        "distance": 29448,
        "place_id": "515f1ed72bd1623640593addc36f54114940f00103f901974925390100000092030e4b7369c499c5bc612047c3b37261"
      },
      "geometry": {
        "type": "Point",
        "coordinates": [
          22.3860042,
          50.1353893
        ]
      }
    },
    {
      "type": "Feature",
      "properties": {
        "country": "Polska",
        "country_code": "pl",
        "state": "województwo podkarpackie",
        "county": "powiat przeworski",
        "city": "Łopuszka Wielka",
        "municipality": "gmina Kańczuga",
        "iso3166_2": "PL-18",
        "lon": 22.3895152,
        "lat": 49.9438816,
        "state_code": "PK",
        "formatted": "Łopuszka Wielka, powiat przeworski, Polska",
        "address_line1": "Łopuszka Wielka",
        "address_line2": "powiat przeworski, Polska",
        "categories": [
          "leisure",
          "leisure.park"
        ],
        "details": [],
        "datasource": {
          "sourcename": "openstreetmap",
          "attribution": "© OpenStreetMap contributors",
          "license": "Open Database License",
          "url": "https://www.openstreetmap.org/copyright",
          "raw": {
            "lat": 49.94400770293878,
            "lon": 22.389202823391066,
            "osm_id": 315725781,
            "leisure": "park",
            "osm_type": "w"
          }
        },
        "distance": 29496,
        "place_id": "51baf9d5cba263364059a6a5913ed5f84840f00102f901d597d11200000000"
      },
      "geometry": {
        "type": "Point",
        "coordinates": [
          22.389202823391066,
          49.94400770293878
        ]
      }
    },
    {
      "type": "Feature",
      "properties": {
        "name": "Park Niepodległości",
        "country": "Polska",
        "country_code": "pl",
        "state": "województwo podkarpackie",
        "county": "powiat kolbuszowski",
        "city": "Kolbuszowa",
        "municipality": "gmina Kolbuszowa",
        "iso3166_2": "PL-18",
        "lon": 21.7383641,
        "lat": 50.2399094,
        "state_code": "PK",
        "formatted": "Park Niepodległości, Kolbuszowa, powiat kolbuszowski, Polska",
        "address_line1": "Park Niepodległości",
        "address_line2": "Kolbuszowa, powiat kolbuszowski, Polska",
        "categories": [
          "leisure",
          "leisure.park"
        ],
        "details": [],
        "datasource": {
          "sourcename": "openstreetmap",
          "attribution": "© OpenStreetMap contributors",
          "license": "Open Database License",
          "url": "https://www.openstreetmap.org/copyright",
          "raw": {
            "lat": 50.239934435069145,
            "lon": 21.738257854149605,
            "name": "Park Niepodległości",
            "osm_id": 1080041593,
            "leisure": "park",
            "osm_type": "w"
          }
        },
        "distance": 29503,
        "place_id": "5173967b77febc35405932e7eb2bb61e4940f00102f90179206040000000009203155061726b204e6965706f646c6567c5826fc59b6369"
      },
      "geometry": {
        "type": "Point",
        "coordinates": [
          21.738257854149605,
          50.239934435069145
        ]
      }
    },
    {
      "type": "Feature",
      "properties": {
        "name": "Dębowiec",
        "country": "Polska",
        "country_code": "pl",
        "state": "województwo podkarpackie",
        "county": "powiat brzozowski",
        "city": "Izdebki",
        "municipality": "gmina Nozdrzec",
        "postcode": "36-233",
        "iso3166_2": "PL-18",
        "lon": 22.0830128,
        "lat": 49.7746555,
        "state_code": "PK",
        "formatted": "Dębowiec, 36-233 Izdebki, Polska",
        "address_line1": "Dębowiec",
        "address_line2": "36-233 Izdebki, Polska",
        "categories": [
          "natural",
          "natural.mountain",
          "natural.mountain.peak"
        ],
        "details": [
          "details"
        ],
        "datasource": {
          "sourcename": "openstreetmap",
          "attribution": "© OpenStreetMap contributors",
          "license": "Open Database License",
          "url": "https://www.openstreetmap.org/copyright",
          "raw": {
            "ele": 418,
            "lat": 49.7746555,
            "lon": 22.0830128,
            "name": "Dębowiec",
            "osm_id": 2726883107,
            "natural": "peak",
            "osm_type": "n"
          }
        },
        "ele": 418,
        "distance": 29727,
        "place_id": "513e26ad534015364059511553e927e34840f00103f90123ef88a20000000092030944c499626f77696563"
      },
      "geometry": {
        "type": "Point",
        "coordinates": [
          22.0830128,
          49.7746555
        ]
      }
    },
    {
      "type": "Feature",
      "properties": {
        "country": "Polska",
        "country_code": "pl",
        "state": "województwo podkarpackie",
        "county": "powiat ropczycko-sędziszowski",
        "city": "Wielopole Skrzyńskie",
        "municipality": "gmina Wielopole Skrzyńskie",
        "postcode": "39-110",
        "iso3166_2": "PL-18",
        "lon": 21.61433,
        "lat": 49.9459052,
        "state_code": "PK",
        "formatted": "39-110 Wielopole Skrzyńskie, Polska",
        "address_line1": "39-110 Wielopole Skrzyńskie",
        "address_line2": "Polska",
        "categories": [
          "leisure",
          "leisure.park"
        ],
        "details": [],
        "datasource": {
          "sourcename": "openstreetmap",
          "attribution": "© OpenStreetMap contributors",
          "license": "Open Database License",
          "url": "https://www.openstreetmap.org/copyright",
          "raw": {
            "lat": 49.945863302101,
            "lon": 21.61427251450231,
            "city": "Wielopole Skrzyńskie",
            "osm_id": 328867323,
            "leisure": "park",
            "osm_type": "w",
            "postcode": "39-110"
          }
        },
        "distance": 29728,
        "place_id": "517e9ea8f6409d3540595481760c12f94840f00102f901fb1d9a1300000000"
      },
      "geometry": {
        "type": "Point",
        "coordinates": [
          21.61427251450231,
          49.945863302101
        ]
      }
    },
    {
      "type": "Feature",
      "properties": {
        "name": "Baranek",
        "country": "Polska",
        "country_code": "pl",
        "state": "województwo podkarpackie",
        "county": "powiat strzyżowski",
        "city": "gmina Wiśniowa",
        "postcode": "38-124",
        "iso3166_2": "PL-18",
        "lon": 21.6656305,
        "lat": 49.8797356,
        "state_code": "PK",
        "formatted": "Baranek, 38-124 gmina Wiśniowa, Polska",
        "address_line1": "Baranek",
        "address_line2": "38-124 gmina Wiśniowa, Polska",
        "categories": [
          "natural",
          "natural.mountain",
          "natural.mountain.peak"
        ],
        "details": [],
        "datasource": {
          "sourcename": "openstreetmap",
          "attribution": "© OpenStreetMap contributors",
          "license": "Open Database License",
          "url": "https://www.openstreetmap.org/copyright",
          "raw": {
            "lat": 49.8797356,
            "lon": 21.6656305,
            "name": "Baranek",
            "osm_id": 5245675546,
            "natural": "peak",
            "osm_type": "n"
          }
        },
        "distance": 29925,
        "place_id": "515ab8acc266aa3540593f90172d9bf04840f00103f9011aa8aa3801000000920307426172616e656b"
      },
      "geometry": {
        "type": "Point",
        "coordinates": [
          21.6656305,
          49.8797356
        ]
      }
    },
    {
      "type": "Feature",
      "properties": {
        "country": "Polska",
        "country_code": "pl",
        "state": "województwo podkarpackie",
        "county": "powiat przeworski",
        "city": "Łopuszka Mała",
        "hamlet": "Groble",
        "municipality": "gmina Kańczuga",
        "iso3166_2": "PL-18",
        "lon": 22.4064525,
        "lat": 49.9653431,
        "state_code": "PK",
        "formatted": "Łopuszka Mała, powiat przeworski, Polska",
        "address_line1": "Łopuszka Mała",
        "address_line2": "powiat przeworski, Polska",
        "categories": [
          "leisure",
          "leisure.park"
        ],
        "details": [],
        "datasource": {
          "sourcename": "openstreetmap",
          "attribution": "© OpenStreetMap contributors",
          "license": "Open Database License",
          "url": "https://www.openstreetmap.org/copyright",
          "raw": {
            "lat": 49.96536291689185,
            "lon": 22.4064374389824,
            "osm_id": 226972974,
            "leisure": "park",
            "osm_type": "w"
          }
        },
        "distance": 29932,
        "place_id": "51a64cb4480c683640592c69160391fb4840f00102f9012e55870d00000000"
      },
      "geometry": {
        "type": "Point",
        "coordinates": [
          22.4064374389824,
          49.96536291689185
        ]
      }
    }
  ]
}